{
  "norad_id": 66472,
  "name": "STARLINK-35567",
  "history": [
    {
      "epoch": "2026-03-28T17:50:52.576512Z",
      "apogee_km": 483.84886146961526,
      "perigee_km": 481.9877316098755,
      "latitude_deg": -1.1803738722066716e-05,
      "longitude_deg": 94.40849398215192,
      "height_km": 482.9274124002267,
      "semi_major_axis_km": 6861.0552965397455,
      "eccentricity": 0.00013563,
      "inclination_deg": 43.0005,
      "raan_deg": 188.2873,
      "arg_perigee_deg": 255.5336,
      "mean_anomaly_deg": 104.5365,
      "mean_motion_rev_day": 15.27623683
    }
  ]
}